satname,norad_id,inclination_deg,eccentricity,mean_motion_rev_per_day,perigee_km,apogee_km,l1,l2
STARLINK-1540,46051,53.158,0.000142,15.30191621,474.2669081707045,476.2132672636171,1 46051U 20055AA  26109.83223974  .00001020  00000+0  46585-4 0  9998,2 46051  53.1580 282.7397 0001420  84.3502 275.7660 15.30191621315389
STARLINK-1541,46052,53.1594,0.0001232,15.5218805,409.50261828610746,411.17529876228764,1 46052U 20055AB  26110.00003472  .01530187  00000+0  22421-1 0  9991,2 46052  53.1594 280.8246 0001232  96.2616  43.4111 15.52188050  5873
STARLINK-1543,46053,53.1588,0.000114,15.30197436,474.44144206319197,476.00400808050745,1 46053U 20055AC  26109.89334859  .00001621  00000+0  66862-4 0  9998,2 46053  53.1588 282.5219 0001140  74.7510 285.3617 15.30197436315380
STARLINK-1548,46054,53.1587,0.0001004,15.30192442,474.5495575243831,475.92571515136024,1 46054U 20055AD  26109.83541288 -.00001320  00000+0 -32469-4 0  9993,2 46054  53.1587 282.7948 0001004  64.7689 295.3416 15.30192442315375
STARLINK-1554,46055,53.1602,0.000128,15.31699502,469.86482329272985,471.61813618354154,1 46055U 20055AE  26109.89006607  .00000329  00000+0  22371-4 0  9998,2 46055  53.1602 282.5720 0001280  76.0928 284.0216 15.31699502315382
STARLINK-1564,46058,53.1583,0.0001396,15.30194677,474.2742328162876,476.1876931515526,1 46058U 20055AH  26109.76595390  .00001745  00000+0  71047-4 0  9996,2 46058  53.1583 283.5732 0001396  83.4650 276.6510 15.30194677315352
STARLINK-1570,46059,53.1605,0.0001326,15.31696012,469.8437206060007,471.6600459378442,1 46059U 20055AJ  26109.72226403 -.00000421  00000+0 -18116-5 0  9990,2 46059  53.1605 283.2337 0001326  88.2247 271.8907 15.31696012315318
STARLINK-1572,46060,53.1603,6.12e-05,15.30127985,475.0106633552259,475.8495399684689,1 46060U 20055AK  26109.74700488 -.00010396  00000+0 -34016-3 0  9991,2 46060  53.1603 283.4063 0000612  34.8216 325.2825 15.30127985315327
STARLINK-1573,46061,53.1594,0.0002189,15.31701775,469.23548603210475,472.2339220641361,1 46061U 20055AL  26109.77352836  .00001747  00000+0  68076-4 0  9997,2 46061  53.1594 282.9653 0002189  85.2218 274.9034 15.31701775315361
STARLINK-1577,46063,53.1631,0.0001171,15.3169159,469.96305868091076,471.56707154455944,1 46063U 20055AN  26109.80149386 -.00000686  00000+0 -10337-4 0  9997,2 46063  53.1631 282.8267 0001171 100.6541 259.4593 15.31691590315367
STARLINK-1583,46064,53.1575,0.0001191,15.3018944,474.4303618704562,476.06283784394327,1 46064U 20055AP  26109.84172435 -.00000561  00000+0 -68073-5 0  9996,2 46064  53.1575 282.7188 0001191  87.0710 273.0427 15.30189440315367
STARLINK-1536,46070,53.142,3.59e-05,15.28782348,479.20500597019145,479.6973808024777,1 46070U 20055AV  26110.00003472  .00071531  00000+0  25111-2 0  9993,2 46070  53.1420 269.6338 0000359 122.4151 254.2079 15.28782348  5804
STARLINK-1542,46073,53.0634,0.0002177,15.09271042,536.9204437830904,539.931915391483,1 46073U 20055AY  26109.91670139  .00077994  00000+0  48074-2 0  9996,2 46073  53.0634 271.5221 0002177  77.5581 144.1924 15.09271042  5790
STARLINK-1549,46074,53.0507,6.23e-05,15.25754687,488.0923952963303,488.9479807819598,1 46074U 20055AZ  26109.73324749  .00016186  00000+0  63771-3 0  9998,2 46074  53.0507 270.2949 0000623  83.7626 276.3443 15.25754687315513
STARLINK-1551,46075,53.1567,0.0001325,15.29357267,476.82407093364236,478.6408763441568,1 46075U 20055BA  26109.16382971  .00002287  00000+0  91553-4 0  9994,2 46075  53.1567 273.0105 0001325  87.1258 272.9894 15.29357267315435
STARLINK-1552,46076,53.1608,0.000101,15.30191409,474.54852956700415,475.93291186658917,1 46076U 20055BB  26109.83904403  .00000705  00000+0  35928-4 0  9996,2 46076  53.1608 269.8399 0001010  78.6442 281.4672 15.30191409315526
STARLINK-1559,46077,53.0242,0.0001274,15.33704767,463.8986133346407,465.64218614009405,1 46077U 20055BC  26109.66754044  .00032425  00000+0  98802-3 0  9995,2 46077  53.0242 242.5717 0001274 226.1229 133.9666 15.33704767315868
STARLINK-1566,46079,53.1577,0.000106,15.29379778,476.9384839024551,478.3919139686295,1 46079U 20055BE  26109.72542279  .00004274  00000+0  16023-3 0  9995,2 46079  53.1577 270.3511 0001060  92.9735 267.1387 15.29379778315525
STARLINK-1568,46080,53.059,0.0003636,15.49955563,414.38528098559254,419.32659985186547,1 46080U 20055BF  26109.93778610  .00035464  00000+0  62823-3 0  9994,2 46080  53.0590 195.6317 0003636 294.6310  65.4319 15.49955563316580
STARLINK-1578,46082,53.1491,0.0001055,15.29332398,477.0834951341749,478.5300992753855,1 46082U 20055BH  26109.91670139  .00054637  00000+0  18932-2 0  9995,2 46082  53.1491 269.8692 0001055  87.1200 290.7298 15.29332398  5687
STARLINK-1579,46083,53.1605,0.0001048,15.30183357,474.54652636305855,475.98299937255524,1 46083U 20055BJ  26110.00003472  .00011499  00000+0  39997-3 0  9992,2 46083  53.1605 269.1512 0001048  80.3116  34.8397 15.30183357  5758
STARLINK-1593,46119,53.0358,0.0003909,15.95270832,284.9542261271681,290.16546792217105,1 46119U 20057C   26110.00003472  .00372917  66384-4  93044-3 0  9994,2 46119  53.0358  61.9518 0003909 106.5701 195.4908 15.95270832  6024
STARLINK-1621,46127,53.0366,0.0003495,16.03468737,262.4993389612873,267.1427666401951,1 46127U 20057L   26109.96537148  .00656774  21558-3  10262-2 0  9997,2 46127  53.0366  34.0713 0003495 145.9928 214.1328 16.03468737313645
STARLINK-1622,46128,53.0208,0.0001147,15.71893452,352.7136631613603,354.25789742716006,1 46128U 20057M   26109.93349702  .00092381  00000+0  69265-3 0  9993,2 46128  53.0208  20.7199 0001147  35.7938 324.3156 15.71893452313834
STARLINK-1623,46129,53.0465,0.000257,15.61393278,381.8938269041473,385.36937596528423,1 46129U 20057N   26109.26758036  .00084855  00000+0  97278-3 0  9996,2 46129  53.0465  59.1847 0002570  33.3523 326.7651 15.61393278313242
STARLINK-1624,46130,53.0381,0.0007133,15.82499077,318.59581080178395,328.1561892476193,1 46130U 20057P   26110.00003472  .00165823  00000+0  76633-3 0  9996,2 46130  53.0381  26.6023 0007133 122.5315  36.2837 15.82499077  5992
STARLINK-1596,46141,53.0392,0.0002091,15.51445847,411.08390884580876,413.9237548416859,1 46141U 20057AA  26109.93399945  .00055046  00000+0  91859-3 0  9993,2 46141  53.0392  33.3851 0002091 106.5877 253.5362 15.51445847313668
STARLINK-1597,46142,53.0451,0.0005185,15.65339726,368.76180729820226,375.7619709462224,1 46142U 20057AB  26109.94833352  .00074087  00000+0  72899-3 0  9999,2 46142  53.0451  95.6114 0005185   7.9813 352.1283 15.65339726312782
